[{"OBJECT_NAME":"UTMN 2 (RS27S)","OBJECT_ID":"2023-091AP","EPOCH":"2026-03-09T23:09:07.917408","MEAN_MOTION":15.29495965,"ECCENTRICITY":0.00097379,"INCLINATION":97.5194,"RA_OF_ASC_NODE":134.949,"ARG_OF_PERICENTER":76.0788,"MEAN_ANOMALY":284.1534,"EPHEMERIS_TYPE":0,"CLASSIFICATION_TYPE":"U","NORAD_CAT_ID":57203,"ELEMENT_SET_NO":999,"REV_AT_EPOCH":14936,"BSTAR":0.00056135701,"MEAN_MOTION_DOT":0.00016013,"MEAN_MOTION_DDOT":0},{"OBJECT_NAME":"STARLINK-36462","OBJECT_ID":"2026-002S","EPOCH":"2026-03-08T02:31:06.610368","MEAN_MOTION":15.2763031,"ECCENTRICITY":0.00012654,"INCLINATION":42.9979,"RA_OF_ASC_NODE":334.466,"ARG_OF_PERICENTER":246.6854,"MEAN_ANOMALY":113.3865,"EPHEMERIS_TYPE":0,"CLASSIFICATION_TYPE":"U","NORAD_CAT_ID":67321,"ELEMENT_SET_NO":999,"REV_AT_EPOCH":1083,"BSTAR":0.0014934836,"MEAN_MOTION_DOT":0.00041128,"MEAN_MOTION_DDOT":0}]
